{
    "links": {
        "self": "http://www.neowsapp.com/rest/v1/neo/3748505?api_key=iIulBulltgU6a56xZRHN4H3l9WmuAYTsLGpBGhQ2"
    },
    "id": "3748505",
    "neo_reference_id": "3748505",
    "name": "(2016 FH14)",
    "designation": "2016 FH14",
    "nasa_jpl_url": "http://ssd.jpl.nasa.gov/sbdb.cgi?sstr=3748505",
    "absolute_magnitude_h": 25.778,
    "estimated_diameter": {
        "kilometers": {
            "estimated_diameter_min": 0.0185761187,
            "estimated_diameter_max": 0.0415374641
        },
        "meters": {
            "estimated_diameter_min": 18.5761186613,
            "estimated_diameter_max": 41.5374640847
        },
        "miles": {
            "estimated_diameter_min": 0.0115426614,
            "estimated_diameter_max": 0.0258101756
        },
        "feet": {
            "estimated_diameter_min": 60.9452731486,
            "estimated_diameter_max": 136.2777736676
        }
    },
    "is_potentially_hazardous_asteroid": false,
    "close_approach_data": [
        {
            "close_approach_date": "2016-02-28",
            "close_approach_date_full": "2016-Feb-28 07:44",
            "epoch_date_close_approach": 1456645440000,
            "relative_velocity": {
                "kilometers_per_second": "5.0987223335",
                "kilometers_per_hour": "18355.4004004797",
                "miles_per_hour": "11405.3319877314"
            },
            "miss_distance": {
                "astronomical": "0.0901223787",
                "lunar": "35.0576053143",
                "kilometers": "13482115.892853369",
                "miles": "8377398.3506957322"
            },
            "orbiting_body": "Earth"
        }
    ],
    "orbital_data": {
        "orbit_id": "4",
        "orbit_determination_date": "2018-02-09 06:27:17",
        "first_observation_date": "2016-03-15",
        "last_observation_date": "2016-03-17",
        "data_arc_in_days": 2,
        "observations_used": 31,
        "orbit_uncertainty": "8",
        "minimum_orbit_intersection": ".0879859",
        "jupiter_tisserand_invariant": "5.093",
        "epoch_osculation": "2457463.5",
        "eccentricity": ".1869531114116906",
        "semi_major_axis": "1.257478260129738",
        "inclination": "8.754967424380819",
        "ascending_node_longitude": "176.7857818670038",
        "orbital_period": "515.0497196705098",
        "perihelion_distance": "1.022388786865924",
        "perihelion_argument": "300.6546580558168",
        "aphelion_distance": "1.492567733393551",
        "perihelion_time": "2457404.957016830034",
        "mean_anomaly": "40.91929989724151",
        "mean_motion": ".6989616463247489",
        "equinox": "J2000",
        "orbit_class": {
            "orbit_class_type": "AMO",
            "orbit_class_description": "Near-Earth asteroid orbits similar to that of 1221 Amor",
            "orbit_class_range": "1.017 AU < q (perihelion) < 1.3 AU"
        }
    },
    "is_sentry_object": false
}